     3.02           N: GNSS NAV DATA    R: GLONASS          RINEX VERSION / TYPE
Spider v7.5.1.8670  SMO                 20201113 050455 UTC PGM / RUN BY / DATE
    18    18  1929     7                                    LEAP SECONDS
                                                            END OF HEADER
R22 2020 11 13 04 15 00-8.159782737494D-05-9.094947017729D-13 4.464000000000D+05
    -5.863017089844D+03 5.196475982666D-02 0.000000000000D+00 0.000000000000D+00
     1.920779345703D+04-2.167901039124D+00 5.587935447693D-09-3.000000000000D+00
    -1.579247656250D+04-2.649856567383D+00 9.313225746155D-10 0.000000000000D+00
R07 2020 11 13 04 15 00-4.129391163588D-05-0.000000000000D+00 4.464000000000D+05
    -2.147126269531D+04-1.702331542969D+00 2.793967723846D-09 0.000000000000D+00
    -3.255369628906D+03-6.765193939209D-01-9.313225746155D-10 5.000000000000D+00
     1.337018847656D+04-2.908576965332D+00-9.313225746155D-10 0.000000000000D+00
R23 2020 11 13 04 15 00 3.445167094469D-04 1.818989403546D-12 4.464000000000D+05
     4.149878906250D+03 2.886972427368D-01-9.313225746155D-10 0.000000000000D+00
     2.448655126953D+04 7.792510986328D-01 6.519258022308D-09 3.000000000000D+00
     5.797895996094D+03-3.495986938477D+00-1.862645149231D-09 0.000000000000D+00
R08 2020 11 13 04 15 00-5.564838647842D-05 0.000000000000D+00 4.464000000000D+05
    -9.483245605469D+03-2.786038398743D+00 9.313225746155D-10 0.000000000000D+00
     7.358643066406D+03-1.302807807922D+00 0.000000000000D+00 6.000000000000D+00
     2.254923388672D+04-7.499380111694D-01-2.793967723846D-09 0.000000000000D+00
R12 2020 11 13 04 15 00 1.797107979655D-04 2.728484105319D-12 4.480800000000D+05
    -3.962896972656D+03-2.277904510498D+00 0.000000000000D+00 0.000000000000D+00
     1.457578271484D+04 1.660299301147D+00 4.656612873077D-09-1.000000000000D+00
    -2.051686181641D+04 1.619153976440D+00 1.862645149231D-09 0.000000000000D+00
R10 2020 11 13 04 45 00-6.385333836079D-05-0.000000000000D+00 4.482000000000D+05
    -1.853735009766D+04 1.706967353821D+00 1.862645149231D-09 0.000000000000D+00
     6.609650878906D+03-1.422636032104D+00-0.000000000000D+00-7.000000000000D+00
     1.618192578125D+04 2.542428016663D+00-1.862645149231D-09 0.000000000000D+00
R24 2020 11 13 04 45 00 2.034381031990D-05 1.818989403546D-12 4.482000000000D+05
     9.563740722656D+03 4.551362991333D-01-0.000000000000D+00 0.000000000000D+00
     2.030978222656D+04 1.599844932556D+00 4.656612873077D-09 2.000000000000D+00
     1.211181835938D+04-3.049147605896D+00-2.793967723846D-09 0.000000000000D+00
R01 2020 11 13 04 45 00 7.051136344671D-05 0.000000000000D+00 4.482000000000D+05
     2.923486328125D+02-2.971201896667D+00 0.000000000000D+00 0.000000000000D+00
     1.156710546875D+04-9.275350570679D-01 9.313225746155D-10 1.000000000000D+00
     2.272423339844D+04 5.111551284790D-01-3.725290298462D-09 0.000000000000D+00
R11 2020 11 13 04 45 00-4.450418055058D-05-9.094947017729D-13 4.482000000000D+05
    -1.827250097656D+04-7.981777191162D-02 2.793967723846D-09 0.000000000000D+00
     1.775320312500D+04 2.553873062134D-01 3.725290298462D-09 0.000000000000D+00
    -1.670325195313D+03 3.542590141296D+00-9.313225746155D-10 0.000000000000D+00
R22 2020 11 13 04 45 00-8.160062134266D-05-9.094947017729D-13 4.482000000000D+05
    -6.151098632813D+03-3.936481475830D-01 9.313225746155D-10 0.000000000000D+00
     1.478926904297D+04-2.697419166565D+00 4.656612873077D-09-3.000000000000D+00
    -1.989304296875D+04-1.876759529114D+00 1.862645149231D-09 0.000000000000D+00
R07 2020 11 13 04 45 00-4.129484295845D-05-0.000000000000D+00 4.482000000000D+05
    -2.397429736328D+04-1.043024063110D+00 2.793967723846D-09 0.000000000000D+00
    -4.009918945313D+03-1.865282058716D-01-1.862645149231D-09 5.000000000000D+00
     7.685026367188D+03-3.367286682129D+00-0.000000000000D+00 0.000000000000D+00
R23 2020 11 13 04 45 00 3.445204347372D-04 1.818989403546D-12 4.482000000000D+05
     4.650816406250D+03 2.250442504883D-01 0.000000000000D+00 0.000000000000D+00
     2.506860107422D+04-1.329965591431D-01 6.519258022308D-09 3.000000000000D+00
    -6.378203125000D+02-3.608343124390D+00-9.313225746155D-10 0.000000000000D+00
R08 2020 11 13 04 45 00-5.564745515585D-05 0.000000000000D+00 4.482000000000D+05
    -1.443060986328D+04-2.660937309265D+00 1.862645149231D-09 0.000000000000D+00
     5.467536621094D+03-7.933778762817D-01-0.000000000000D+00 6.000000000000D+00
     2.034868701172D+04-1.679435729980D+00-2.793967723846D-09 0.000000000000D+00
R12 2020 11 13 04 45 00 1.797163859010D-04 2.728484105319D-12 4.482000000000D+05
    -7.508258300781D+03-1.642538070679D+00 1.862645149231D-09 0.000000000000D+00
     1.758078466797D+04 1.633749008179D+00 4.656612873077D-09-1.000000000000D+00
    -1.684427539063D+04 2.434895515442D+00 9.313225746155D-10 0.000000000000D+00
R17 2020 11 13 04 45 00 3.735786303878D-04 2.728484105319D-12 4.489200000000D+05
     1.130129296875D+04 6.752424240112D-01-9.313225746155D-10 0.000000000000D+00
     4.175538085938D+03 3.005764007568D+00 0.000000000000D+00 4.000000000000D+00
     2.248870849609D+04-9.021530151367D-01-2.793967723846D-09 0.000000000000D+00
